{"type": "FeatureCollection", "features": [ {"type": "Feature", "properties": {"norad_id": 34833, "name": "IRIDIUM 33 DEB", "group": "iridium-33-debris", "lat": -30.240697377227356, "lon": -128.72765608520692, "alt_km": 732.6849748420527, "timestamp": "2025-12-16T23:36:36.583477+00:00", "meta": {"OBJECT_NAME": "IRIDIUM 33 DEB", "OBJECT_ID": "1997-051MH", "EPOCH": "2025-12-15T10:20:22.808256", "MEAN_MOTION": 14.52396502, "ECCENTRICITY": 0.00217393, "INCLINATION": 86.3936, "RA_OF_ASC_NODE": 49.8343, "ARG_OF_PERICENTER": 90.4638, "MEAN_ANOMALY": 284.9984, "EPHEMERIS_TYPE": 0, "CLASSIFICATION_TYPE": "U", "NORAD_CAT_ID": 34833, "ELEMENT_SET_NO": 999, "REV_AT_EPOCH": 87754, "BSTAR": 0.00054738094, "MEAN_MOTION_DOT": 2.256e-05, "MEAN_MOTION_DDOT": 0}, "tle": {"line1": "1 34833U 97051MH  25349.43081954  .00002256  00000+0  54738-3 0  9994", "line2": "2 34833  86.3936  49.8343 0021739  90.4638 284.9984 14.52396502877543"}}, "geometry": {"type": "Point", "coordinates": [-128.72765608520692, -30.240697377227356]}}, {"type": "Feature", "properties": {"norad_id": 34870, "name": "IRIDIUM 33 DEB", "group": "iridium-33-debris", "lat": -9.677058307105822, "lon": 132.77061088783907, "alt_km": 633.8185616678766, "timestamp": "2025-12-16T23:36:36.583488+00:00", "meta": {"OBJECT_NAME": "IRIDIUM 33 DEB", "OBJECT_ID": "1997-051MQ", "EPOCH": "2025-12-15T20:52:07.322880", "MEAN_MOTION": 14.7649675, "ECCENTRICITY": 0.00166647, "INCLINATION": 86.3098, "RA_OF_ASC_NODE": 312.6504, "ARG_OF_PERICENTER": 171.0618, "MEAN_ANOMALY": 219.7465, "EPHEMERIS_TYPE": 0, "CLASSIFICATION_TYPE": "U", "NORAD_CAT_ID": 34870, "ELEMENT_SET_NO": 999, "REV_AT_EPOCH": 88957, "BSTAR": 0.0009319058, "MEAN_MOTION_DOT": 6.529e-05, "MEAN_MOTION_DDOT": 0}, "tle": {"line1": "1 34870U 97051MQ  25349.86952920  .00006529  00000+0  93191-3 0  9995", "line2": "2 34870  86.3098 312.6504 0016664 171.0618 219.7465 14.76496750889576"}}, "geometry": {"type": "Point", "coordinates": [132.77061088783907, -9.677058307105822]}}, {"type": "Feature", "properties": {"norad_id": 34896, "name": "IRIDIUM 33 DEB", "group": "iridium-33-debris", "lat": -55.44441420513694, "lon": 150.13130186844765, "alt_km": 665.9635817529397, "timestamp": "2025-12-16T23:36:36.583498+00:00", "meta": {"OBJECT_NAME": "IRIDIUM 33 DEB", "OBJECT_ID": "1997-051MY", "EPOCH": "2025-12-16T04:34:33.251232", "MEAN_MOTION": 14.66314014, "ECCENTRICITY": 0.00246953, "INCLINATION": 86.3284, "RA_OF_ASC_NODE": 325.1372, "ARG_OF_PERICENTER": 201.8046, "MEAN_ANOMALY": 169.754, "EPHEMERIS_TYPE": 0, "CLASSIFICATION_TYPE": "U", "NORAD_CAT_ID": 34896, "ELEMENT_SET_NO": 999, "REV_AT_EPOCH": 87670, "BSTAR": 0.00064317524, "MEAN_MOTION_DOT": 3.586e-05, "MEAN_MOTION_DDOT": 0}, "tle": {"line1": "1 34896U 97051MY  25350.19066263  .00003586  00000+0  64318-3 0  9996", "line2": "2 34896  86.3284 325.1372 0024695 201.8046 169.7540 14.66314014876703"}}, "geometry": {"type": "Point", "coordinates": [150.13130186844765, -55.44441420513694]}}, {"type": "Feature", "properties": {"norad_id": 34926, "name": "IRIDIUM 33 DEB", "group": "iridium-33-debris", "lat": 38.077796587531466, "lon": -176.73184710034153, "alt_km": 746.1696209415095, "timestamp": "2025-12-16T23:36:36.583509+00:00", "meta": {"OBJECT_NAME": "IRIDIUM 33 DEB", "OBJECT_ID": "1997-051NF", "EPOCH": "2025-12-16T08:25:13.158336", "MEAN_MOTION": 14.54585993, "ECCENTRICITY": 0.00748287, "INCLINATION": 86.1325, "RA_OF_ASC_NODE": 6.5997, "ARG_OF_PERICENTER": 280.2955, "MEAN_ANOMALY": 149.8924, "EPHEMERIS_TYPE": 0, "CLASSIFICATION_TYPE": "U", "NORAD_CAT_ID": 34926, "ELEMENT_SET_NO": 999, "REV_AT_EPOCH": 86509, "BSTAR": 0.0039351708, "MEAN_MOTION_DOT": 0.0001748, "MEAN_MOTION_DDOT": 0}, "tle": {"line1": "1 34926U 97051NF  25350.35084674  .00017480  00000+0  39352-2 0  9991", "line2": "2 34926  86.1325   6.5997 0074828 280.2955 149.8924 14.54585993865095"}}, "geometry": {"type": "Point", "coordinates": [-176.73184710034153, 38.077796587531466]}}, {"type": "Feature", "properties": {"norad_id": 34985, "name": "IRIDIUM 33 DEB", "group": "iridium-33-debris", "lat": 75.81396087660784, "lon": 69.61482467079591, "alt_km": 754.1686828679276, "timestamp": "2025-12-16T23:36:36.583520+00:00", "meta": {"OBJECT_NAME": "IRIDIUM 33 DEB", "OBJECT_ID": "1997-051NR", "EPOCH": "2025-12-15T23:04:55.240608", "MEAN_MOTION": 14.42024534, "ECCENTRICITY": 0.00210591, "INCLINATION": 86.3698, "RA_OF_ASC_NODE": 55.5052, "ARG_OF_PERICENTER": 208.7794, "MEAN_ANOMALY": 325.5524, "EPHEMERIS_TYPE": 0, "CLASSIFICATION_TYPE": "U", "NORAD_CAT_ID": 34985, "ELEMENT_SET_NO": 999, "REV_AT_EPOCH": 87221, "BSTAR": 0.00049841253, "MEAN_MOTION_DOT": 1.659e-05, "MEAN_MOTION_DDOT": 0}, "tle": {"line1": "1 34985U 97051NR  25349.96175047  .00001659  00000+0  49841-3 0  9992", "line2": "2 34985  86.3698  55.5052 0021059 208.7794 325.5524 14.42024534872212"}}, "geometry": {"type": "Point", "coordinates": [69.61482467079591, 75.81396087660784]}}, {"type": "Feature", "properties": {"norad_id": 35051, "name": "IRIDIUM 33 DEB", "group": "iridium-33-debris", "lat": 84.07904278608484, "lon": 148.70862716806897, "alt_km": 718.7702090343018, "timestamp": "2025-12-16T23:36:36.583530+00:00", "meta": {"OBJECT_NAME": "IRIDIUM 33 DEB", "OBJECT_ID": "1997-051NX", "EPOCH": "2025-12-11T08:47:57.045408", "MEAN_MOTION": 14.47588957, "ECCENTRICITY": 0.00106566, "INCLINATION": 86.3243, "RA_OF_ASC_NODE": 9.4603, "ARG_OF_PERICENTER": 94.8899, "MEAN_ANOMALY": 265.3522, "EPHEMERIS_TYPE": 0, "CLASSIFICATION_TYPE": "U", "NORAD_CAT_ID": 35051, "ELEMENT_SET_NO": 999, "REV_AT_EPOCH": 86976, "BSTAR": 0.001042299, "MEAN_MOTION_DOT": 3.858e-05, "MEAN_MOTION_DDOT": 0}, "tle": {"line1": "1 35051U 97051NX  25345.36663247  .00003858  00000+0  10423-2 0  9997", "line2": "2 35051  86.3243   9.4603 0010656  94.8899 265.3522 14.47588957869768"}}, "geometry": {"type": "Point", "coordinates": [148.70862716806897, 84.07904278608484]}}, {"type": "Feature", "properties": {"norad_id": 35052, "name": "IRIDIUM 33 DEB", "group": "iridium-33-debris", "lat": 74.83733293068542, "lon": -175.04071754486216, "alt_km": 748.1869106630684, "timestamp": "2025-12-16T23:36:36.583541+00:00", "meta": {"OBJECT_NAME": "IRIDIUM 33 DEB", "OBJECT_ID": "1997-051NY", "EPOCH": "2025-12-16T08:06:03.894048", "MEAN_MOTION": 14.38496373, "ECCENTRICITY": 0.00135749, "INCLINATION": 86.3307, "RA_OF_ASC_NODE": 18.9338, "ARG_OF_PERICENTER": 75.0638, "MEAN_ANOMALY": 285.2062, "EPHEMERIS_TYPE": 0, "CLASSIFICATION_TYPE": "U", "NORAD_CAT_ID": 35052, "ELEMENT_SET_NO": 999, "REV_AT_EPOCH": 87327, "BSTAR": 0.00017087331, "MEAN_MOTION_DOT": 5.42e-06, "MEAN_MOTION_DDOT": 0}, "tle": {"line1": "1 35052U 97051NY  25350.33754507  .00000542  00000+0  17087-3 0  9992", "line2": "2 35052  86.3307  18.9338 0013574  75.0638 285.2062 14.38496373873275"}}, "geometry": {"type": "Point", "coordinates": [-175.04071754486216, 74.83733293068542]}}, {"type": "Feature", "properties": {"norad_id": 35080, "name": "IRIDIUM 33 DEB", "group": "iridium-33-debris", "lat": -69.4758679644733, "lon": 40.14156046568495, "alt_km": 639.9521237820572, "timestamp": "2025-12-16T23:36:36.583557+00:00", "meta": {"OBJECT_NAME": "IRIDIUM 33 DEB", "OBJECT_ID": "1997-051PF", "EPOCH": "2025-12-15T22:04:39.139680", "MEAN_MOTION": 14.86464911, "ECCENTRICITY": 0.00597118, "INCLINATION": 86.2076, "RA_OF_ASC_NODE": 50.8561, "ARG_OF_PERICENTER": 168.7581, "MEAN_ANOMALY": 191.4994, "EPHEMERIS_TYPE": 0, "CLASSIFICATION_TYPE": "U", "NORAD_CAT_ID": 35080, "ELEMENT_SET_NO": 999, "REV_AT_EPOCH": 69735, "BSTAR": 0.00478109, "MEAN_MOTION_DOT": 0.00043877, "MEAN_MOTION_DDOT": 0}, "tle": {"line1": "1 35080U 97051PF  25349.91989745  .00043877  00000+0  47811-2 0  9994", "line2": "2 35080  86.2076  50.8561 0059711 168.7581 191.4994 14.86464911697352"}}, "geometry": {"type": "Point", "coordinates": [40.14156046568495, -69.4758679644733]}}, {"type": "Feature", "properties": {"norad_id": 35297, "name": "IRIDIUM 33 DEB", "group": "iridium-33-debris", "lat": 66.38217767001022, "lon": -127.35954310715151, "alt_km": 722.865536750609, "timestamp": "2025-12-16T23:36:36.583577+00:00", "meta": {"OBJECT_NAME": "IRIDIUM 33 DEB", "OBJECT_ID": "1997-051PM", "EPOCH": "2025-12-14T12:55:35.277600", "MEAN_MOTION": 14.45168041, "ECCENTRICITY": 0.00176283, "INCLINATION": 86.3867, "RA_OF_ASC_NODE": 61.9926, "ARG_OF_PERICENTER": 135.2135, "MEAN_ANOMALY": 225.0494, "EPHEMERIS_TYPE": 0, "CLASSIFICATION_TYPE": "U", "NORAD_CAT_ID": 35297, "ELEMENT_SET_NO": 999, "REV_AT_EPOCH": 70452, "BSTAR": 0.0006336217, "MEAN_MOTION_DOT": 2.241e-05, "MEAN_MOTION_DDOT": 0}, "tle": {"line1": "1 35297U 97051PM  25348.53860275  .00002241  00000+0  63362-3 0  9997", "line2": "2 35297  86.3867  61.9926 0017628 135.2135 225.0494 14.45168041704521"}}, "geometry": {"type": "Point", "coordinates": [-127.35954310715151, 66.38217767001022]}}, {"type": "Feature", "properties": {"norad_id": 35299, "name": "IRIDIUM 33 DEB", "group": "iridium-33-debris", "lat": -20.04882916484497, "lon": 29.9817830150238, "alt_km": 774.1652916310522, "timestamp": "2025-12-16T23:36:36.583588+00:00", "meta": {"OBJECT_NAME": "IRIDIUM 33 DEB", "OBJECT_ID": "1997-051PP", "EPOCH": "2025-12-15T21:50:14.877024", "MEAN_MOTION": 14.40877819, "ECCENTRICITY": 0.00589889, "INCLINATION": 86.2887, "RA_OF_ASC_NODE": 31.8064, "ARG_OF_PERICENTER": 92.3249, "MEAN_ANOMALY": 81.5744, "EPHEMERIS_TYPE": 0, "CLASSIFICATION_TYPE": "U", "NORAD_CAT_ID": 35299, "ELEMENT_SET_NO": 999, "REV_AT_EPOCH": 86376, "BSTAR": 0.00055865127, "MEAN_MOTION_DOT": 1.848e-05, "MEAN_MOTION_DDOT": 0}, "tle": {"line1": "1 35299U 97051PP  25349.90989441  .00001848  00000+0  55865-3 0  9999", "line2": "2 35299  86.2887  31.8064 0058988  92.3249  81.5744 14.40877819863766"}}, "geometry": {"type": "Point", "coordinates": [29.9817830150238, -20.04882916484497]}}]}